{
  "type": "FeatureCollection",
  "features": [
    {
      "type": "Feature",
      "properties": {
        "norad_id": 30389,
        "name": "FENGYUN 1C DEB",
        "group": "fengyun-1c-debris",
        "lat": -76.88764642167523,
        "lon": -142.53861136455242,
        "alt_km": 748.0760004354161,
        "timestamp": "2025-12-23T16:57:12.628419+00:00",
        "meta_object_name": "FENGYUN 1C DEB",
        "meta_object_id": "1999-025ADC",
        "meta_epoch": "2025-12-23T04:23:15.236736",
        "meta_mean_motion": 14.4420559,
        "meta_eccentricity": 0.00146888,
        "meta_inclination": 98.8378,
        "meta_ra_of_asc_node": 78.8255,
        "meta_arg_of_pericenter": 193.2524,
        "meta_mean_anomaly": 226.2329,
        "meta_ephemeris_type": 0,
        "meta_classification_type": "U",
        "meta_norad_cat_id": 30389,
        "meta_element_set_no": 999,
        "meta_rev_at_epoch": 97937,
        "meta_bstar": 0.0024127296,
        "meta_mean_motion_dot": 8.254e-05,
        "meta_mean_motion_ddot": 0,
        "tle_line1": "1 30389U 99025ADC 25357.18281524  .00008254  00000+0  24127-2 0  9997",
        "tle_line2": "2 30389  98.8378  78.8255 0014688 193.2524 226.2329 14.44205590979371"
      },
      "geometry": {
        "type": "Point",
        "coordinates": [
          -142.53861136455242,
          -76.88764642167523
        ]
      }
    },
    {
      "type": "Feature",
      "properties": {
        "norad_id": 30390,
        "name": "FENGYUN 1C DEB",
        "group": "fengyun-1c-debris",
        "lat": -74.25694819467444,
        "lon": -132.37479882650064,
        "alt_km": 826.4363708857554,
        "timestamp": "2025-12-23T16:57:12.628431+00:00",
        "meta_object_name": "FENGYUN 1C DEB",
        "meta_object_id": "1999-025ADD",
        "meta_epoch": "2025-12-23T04:08:37.569984",
        "meta_mean_motion": 14.29817382,
        "meta_eccentricity": 0.00678338,
        "meta_inclination": 98.8223,
        "meta_ra_of_asc_node": 80.5155,
        "meta_arg_of_pericenter": 134.6527,
        "meta_mean_anomaly": 255.7973,
        "meta_ephemeris_type": 0,
        "meta_classification_type": "U",
        "meta_norad_cat_id": 30390,
        "meta_element_set_no": 999,
        "meta_rev_at_epoch": 97533,
        "meta_bstar": 0.0017825255,
        "meta_mean_motion_dot": 4.655e-05,
        "meta_mean_motion_ddot": 0,
        "tle_line1": "1 30390U 99025ADD 25357.17265706  .00004655  00000+0  17825-2 0  9990",
        "tle_line2": "2 30390  98.8223  80.5155 0067833 134.6527 255.7973 14.29817382975338"
      },
      "geometry": {
        "type": "Point",
        "coordinates": [
          -132.37479882650064,
          -74.25694819467444
        ]
      }
    },
    {
      "type": "Feature",
      "properties": {
        "norad_id": 30391,
        "name": "FENGYUN 1C DEB",
        "group": "fengyun-1c-debris",
        "lat": -2.250901053279715,
        "lon": 43.90659516590831,
        "alt_km": 872.310157410915,
        "timestamp": "2025-12-23T16:57:12.628443+00:00",
        "meta_object_name": "FENGYUN 1C DEB",
        "meta_object_id": "1999-025ADE",
        "meta_epoch": "2025-12-23T01:50:46.491072",
        "meta_mean_motion": 14.16281118,
        "meta_eccentricity": 0.00719092,
        "meta_inclination": 98.78,
        "meta_ra_of_asc_node": 42.9379,
        "meta_arg_of_pericenter": 232.4027,
        "meta_mean_anomaly": 157.1554,
        "meta_ephemeris_type": 0,
        "meta_classification_type": "U",
        "meta_norad_cat_id": 30391,
        "meta_element_set_no": 999,
        "meta_rev_at_epoch": 97025,
        "meta_bstar": 0.0010261477,
        "meta_mean_motion_dot": 2.042e-05,
        "meta_mean_motion_ddot": 0,
        "tle_line1": "1 30391U 99025ADE 25357.07692698  .00002042  00000+0  10261-2 0  9999",
        "tle_line2": "2 30391  98.7800  42.9379 0071909 232.4027 157.1554 14.16281118970254"
      },
      "geometry": {
        "type": "Point",
        "coordinates": [
          43.90659516590831,
          -2.250901053279715
        ]
      }
    },
    {
      "type": "Feature",
      "properties": {
        "norad_id": 30392,
        "name": "FENGYUN 1C DEB",
        "group": "fengyun-1c-debris",
        "lat": 1.617862412690873,
        "lon": 15.74424787461585,
        "alt_km": 763.807875920852,
        "timestamp": "2025-12-23T16:57:12.628454+00:00",
        "meta_object_name": "FENGYUN 1C DEB",
        "meta_object_id": "1999-025ADF",
        "meta_epoch": "2025-12-23T00:11:59.923680",
        "meta_mean_motion": 14.07476161,
        "meta_eccentricity": 0.01805543,
        "meta_inclination": 98.7851,
        "meta_ra_of_asc_node": 15.3154,
        "meta_arg_of_pericenter": 327.8903,
        "meta_mean_anomaly": 97.602,
        "meta_ephemeris_type": 0,
        "meta_classification_type": "U",
        "meta_norad_cat_id": 30392,
        "meta_element_set_no": 999,
        "meta_rev_at_epoch": 96815,
        "meta_bstar": 0.00059419408,
        "meta_mean_motion_dot": 1.117e-05,
        "meta_mean_motion_ddot": 0,
        "tle_line1": "1 30392U 99025ADF 25357.00833245  .00001117  00000+0  59419-3 0  9999",
        "tle_line2": "2 30392  98.7851  15.3154 0180554 327.8903  97.6020 14.07476161968151"
      },
      "geometry": {
        "type": "Point",
        "coordinates": [
          15.74424787461585,
          1.617862412690873
        ]
      }
    },
    {
      "type": "Feature",
      "properties": {
        "norad_id": 30393,
        "name": "FENGYUN 1C DEB",
        "group": "fengyun-1c-debris",
        "lat": 59.78128807398683,
        "lon": -108.41850339358082,
        "alt_km": 909.2609846168198,
        "timestamp": "2025-12-23T16:57:12.628467+00:00",
        "meta_object_name": "FENGYUN 1C DEB",
        "meta_object_id": "1999-025ADG",
        "meta_epoch": "2025-12-22T15:22:25.405248",
        "meta_mean_motion": 13.98991737,
        "meta_eccentricity": 0.00699352,
        "meta_inclination": 99.1641,
        "meta_ra_of_asc_node": 54.4262,
        "meta_arg_of_pericenter": 232.6689,
        "meta_mean_anomaly": 281.9878,
        "meta_ephemeris_type": 0,
        "meta_classification_type": "U",
        "meta_norad_cat_id": 30393,
        "meta_element_set_no": 999,
        "meta_rev_at_epoch": 96468,
        "meta_bstar": 0.00014670343,
        "meta_mean_motion_dot": 1.71e-06,
        "meta_mean_motion_ddot": 0,
        "tle_line1": "1 30393U 99025ADG 25356.64057182  .00000171  00000+0  14670-3 0  9996",
        "tle_line2": "2 30393  99.1641  54.4262 0069935 232.6689 281.9878 13.98991737964684"
      },
      "geometry": {
        "type": "Point",
        "coordinates": [
          -108.41850339358082,
          59.78128807398683
        ]
      }
    },
    {
      "type": "Feature",
      "properties": {
        "norad_id": 30394,
        "name": "FENGYUN 1C DEB",
        "group": "fengyun-1c-debris",
        "lat": -37.04066727438355,
        "lon": 33.43624762073425,
        "alt_km": 936.0258316661284,
        "timestamp": "2025-12-23T16:57:12.628478+00:00",
        "meta_object_name": "FENGYUN 1C DEB",
        "meta_object_id": "1999-025ADH",
        "meta_epoch": "2025-12-23T01:57:07.515072",
        "meta_mean_motion": 13.9579298,
        "meta_eccentricity": 0.0089747,
        "meta_inclination": 99.4336,
        "meta_ra_of_asc_node": 25.5888,
        "meta_arg_of_pericenter": 73.6946,
        "meta_mean_anomaly": 350.5972,
        "meta_ephemeris_type": 0,
        "meta_classification_type": "U",
        "meta_norad_cat_id": 30394,
        "meta_element_set_no": 999,
        "meta_rev_at_epoch": 96248,
        "meta_bstar": 0.00025789999,
        "meta_mean_motion_dot": 3.18e-06,
        "meta_mean_motion_ddot": 0,
        "tle_line1": "1 30394U 99025ADH 25357.08133698  .00000318  00000+0  25790-3 0  9991",
        "tle_line2": "2 30394  99.4336  25.5888 0089747  73.6946 350.5972 13.95792980962484"
      },
      "geometry": {
        "type": "Point",
        "coordinates": [
          33.43624762073425,
          -37.04066727438355
        ]
      }
    },
    {
      "type": "Feature",
      "properties": {
        "norad_id": 30395,
        "name": "FENGYUN 1C DEB",
        "group": "fengyun-1c-debris",
        "lat": 29.43902418299941,
        "lon": -161.9581332215381,
        "alt_km": 1008.100545103659,
        "timestamp": "2025-12-23T16:57:12.628489+00:00",
        "meta_object_name": "FENGYUN 1C DEB",
        "meta_object_id": "1999-025ADJ",
        "meta_epoch": "2025-12-23T01:03:08.130240",
        "meta_mean_motion": 13.96704998,
        "meta_eccentricity": 0.0159884,
        "meta_inclination": 98.93,
        "meta_ra_of_asc_node": 12.3076,
        "meta_arg_of_pericenter": 357.7984,
        "meta_mean_anomaly": 61.8812,
        "meta_ephemeris_type": 0,
        "meta_classification_type": "U",
        "meta_norad_cat_id": 30395,
        "meta_element_set_no": 999,
        "meta_rev_at_epoch": 96167,
        "meta_bstar": 0.00045099349,
        "meta_mean_motion_dot": 6.54e-06,
        "meta_mean_motion_ddot": 0,
        "tle_line1": "1 30395U 99025ADJ 25357.04384410  .00000654  00000+0  45099-3 0  9995",
        "tle_line2": "2 30395  98.9300  12.3076 0159884 357.7984  61.8812 13.96704998961679"
      },
      "geometry": {
        "type": "Point",
        "coordinates": [
          -161.9581332215381,
          29.43902418299941
        ]
      }
    }
  ]
}